USA 568                 
1 66551U 24134K   25336.66670139 -.01709685  00000+0 -74303-2 0  9990
2 66551  53.1571 236.7807 0000717 110.7411 313.9012 15.87051116  2624
GLOBAL-33               
1 66554U 25267A   25351.55432308  .00010293  00000+0  33724-3 0  9990
2 66554  42.0221  29.1980 0003479 114.7886 245.3313 15.31652128  4140
ELECTRON KICK STAGE R/B 
1 66555U 25267B   25351.60355219  .00019838  00000+0  61399-3 0  9995
2 66555  42.0197  28.6999 0006678  92.8564 267.3039 15.33044085  4159
STARLINK-35699          
1 66557U 25268A   25351.61762821  .00091482  00000+0  15477-2 0  9990
2 66557  43.0006  92.6720 0001406 273.5065  86.5634 15.50566630  5384
STARLINK-35695          
1 66558U 25268B   25351.35965459  .00057429  00000+0  97738-3 0  9998
2 66558  43.0011  94.1767 0003612 287.7375  72.3091 15.50579494  5349
STARLINK-35419          
1 66559U 25268C   25351.29486811  .00084897  00000+0  14358-2 0  9997
2 66559  42.9993  94.5526 0001894 288.6146  71.4508 15.50608017  5336
STARLINK-35411          
1 66560U 25268D   25351.35894514  .00065113  00000+0  11053-2 0  9998
2 66560  42.9992  94.1718 0002171 280.8455  79.2161 15.50607970  5341
STARLINK-35305          
1 66561U 25268E   25351.35826390  .00078263  00000+0  13229-2 0  9993
2 66561  43.0004  94.1664 0001444 279.4908  80.5789 15.50655998  5341
STARLINK-35579          
1 66562U 25268F   25351.35861491  .00108863  00000+0  18312-2 0  9993
2 66562  42.9996  94.1673 0002346 253.6447 106.4155 15.50648416  5346
STARLINK-35437          
1 66563U 25268G   25351.35792193  .00069005  00000+0  11700-2 0  9994
2 66563  43.0005  94.1634 0002080 277.1419  82.9205 15.50619778  5345
STARLINK-35358          
1 66564U 25268H   25350.58459699  .00058955  00000+0  10026-2 0  9992
2 66564  43.0010  98.6796 0002711 274.7611  85.2939 15.50594418  5228
STARLINK-35893          
1 66565U 25268J   25351.61490005  .00080083  00000+0  13538-2 0  9992
2 66565  42.9963  92.6492 0001023 296.3294  63.7461 15.50645762  5380
