CCSDS_OMM_VERS = 2.0
CREATION_DATE  = 
ORIGINATOR     = 

OBJECT_NAME    = USA 568
OBJECT_ID      = 2024-134K
CENTER_NAME    = EARTH
REF_FRAME      = TEME
TIME_SYSTEM    = UTC
MEAN_ELEMENT_THEORY = SGP/SGP4

EPOCH          = 2025-12-02T16:00:03.000096
MEAN_MOTION    = 15.87051116
ECCENTRICITY   = .0000717
INCLINATION    = 53.1571
RA_OF_ASC_NODE = 236.7807
ARG_OF_PERICENTER = 110.7411
MEAN_ANOMALY   = 313.9012

EPHEMERIS_TYPE = 0
CLASSIFICATION_TYPE = U
NORAD_CAT_ID   = 66551
ELEMENT_SET_NO = 999
REV_AT_EPOCH   = 262
BSTAR          = -.74303E-2
MEAN_MOTION_DOT = -.1709685E-1
MEAN_MOTION_DDOT = 0

CCSDS_OMM_VERS = 2.0
CREATION_DATE  = 
ORIGINATOR     = 

OBJECT_NAME    = GLOBAL-33
OBJECT_ID      = 2025-267A
CENTER_NAME    = EARTH
REF_FRAME      = TEME
TIME_SYSTEM    = UTC
MEAN_ELEMENT_THEORY = SGP/SGP4

EPOCH          = 2025-12-17T13:18:13.514112
MEAN_MOTION    = 15.31652128
ECCENTRICITY   = .00034795
INCLINATION    = 42.0221
RA_OF_ASC_NODE = 29.1980
ARG_OF_PERICENTER = 114.7886
MEAN_ANOMALY   = 245.3313

EPHEMERIS_TYPE = 0
CLASSIFICATION_TYPE = U
NORAD_CAT_ID   = 66554
ELEMENT_SET_NO = 999
REV_AT_EPOCH   = 414
BSTAR          = .33723596E-3
MEAN_MOTION_DOT = .10293E-3
MEAN_MOTION_DDOT = 0

CCSDS_OMM_VERS = 2.0
CREATION_DATE  = 
ORIGINATOR     = 

OBJECT_NAME    = ELECTRON KICK STAGE R/B
OBJECT_ID      = 2025-267B
CENTER_NAME    = EARTH
REF_FRAME      = TEME
TIME_SYSTEM    = UTC
MEAN_ELEMENT_THEORY = SGP/SGP4

EPOCH          = 2025-12-17T14:29:06.909216
MEAN_MOTION    = 15.33044085
ECCENTRICITY   = .0006678
INCLINATION    = 42.0197
RA_OF_ASC_NODE = 28.6999
ARG_OF_PERICENTER = 92.8564
MEAN_ANOMALY   = 267.3039

EPHEMERIS_TYPE = 0
CLASSIFICATION_TYPE = U
NORAD_CAT_ID   = 66555
ELEMENT_SET_NO = 999
REV_AT_EPOCH   = 415
BSTAR          = .61399448E-3
MEAN_MOTION_DOT = .19838E-3
MEAN_MOTION_DDOT = 0

CCSDS_OMM_VERS = 2.0
CREATION_DATE  = 
ORIGINATOR     = 

OBJECT_NAME    = STARLINK-35699
OBJECT_ID      = 2025-268A
CENTER_NAME    = EARTH
REF_FRAME      = TEME
TIME_SYSTEM    = UTC
MEAN_ELEMENT_THEORY = SGP/SGP4

EPOCH          = 2025-12-17T14:49:23.077344
MEAN_MOTION    = 15.50566630
ECCENTRICITY   = .00014062
INCLINATION    = 43.0006
RA_OF_ASC_NODE = 92.6720
ARG_OF_PERICENTER = 273.5065
MEAN_ANOMALY   = 86.5634

EPHEMERIS_TYPE = 0
CLASSIFICATION_TYPE = U
NORAD_CAT_ID   = 66557
ELEMENT_SET_NO = 999
REV_AT_EPOCH   = 538
BSTAR          = .15477021E-2
MEAN_MOTION_DOT = .91482E-3
MEAN_MOTION_DDOT = 0

CCSDS_OMM_VERS = 2.0
CREATION_DATE  = 
ORIGINATOR     = 

OBJECT_NAME    = STARLINK-35695
OBJECT_ID      = 2025-268B
CENTER_NAME    = EARTH
REF_FRAME      = TEME
TIME_SYSTEM    = UTC
MEAN_ELEMENT_THEORY = SGP/SGP4

EPOCH          = 2025-12-17T08:37:54.156576
MEAN_MOTION    = 15.50579494
ECCENTRICITY   = .00036126
INCLINATION    = 43.0011
RA_OF_ASC_NODE = 94.1767
ARG_OF_PERICENTER = 287.7375
MEAN_ANOMALY   = 72.3091

EPHEMERIS_TYPE = 0
CLASSIFICATION_TYPE = U
NORAD_CAT_ID   = 66558
ELEMENT_SET_NO = 999
REV_AT_EPOCH   = 534
BSTAR          = .9773811E-3
MEAN_MOTION_DOT = .57429E-3
MEAN_MOTION_DDOT = 0

CCSDS_OMM_VERS = 2.0
CREATION_DATE  = 
ORIGINATOR     = 

OBJECT_NAME    = STARLINK-35419
OBJECT_ID      = 2025-268C
CENTER_NAME    = EARTH
REF_FRAME      = TEME
TIME_SYSTEM    = UTC
MEAN_ELEMENT_THEORY = SGP/SGP4

EPOCH          = 2025-12-17T07:04:36.604704
MEAN_MOTION    = 15.50608017
ECCENTRICITY   = .0001894
INCLINATION    = 42.9993
RA_OF_ASC_NODE = 94.5526
ARG_OF_PERICENTER = 288.6146
MEAN_ANOMALY   = 71.4508

EPHEMERIS_TYPE = 0
CLASSIFICATION_TYPE = U
NORAD_CAT_ID   = 66559
ELEMENT_SET_NO = 999
REV_AT_EPOCH   = 533
BSTAR          = .14357802E-2
MEAN_MOTION_DOT = .84897E-3
MEAN_MOTION_DDOT = 0

CCSDS_OMM_VERS = 2.0
CREATION_DATE  = 
ORIGINATOR     = 

OBJECT_NAME    = STARLINK-35411
OBJECT_ID      = 2025-268D
CENTER_NAME    = EARTH
REF_FRAME      = TEME
TIME_SYSTEM    = UTC
MEAN_ELEMENT_THEORY = SGP/SGP4

EPOCH          = 2025-12-17T08:36:52.860096
MEAN_MOTION    = 15.50607970
ECCENTRICITY   = .00021717
INCLINATION    = 42.9992
RA_OF_ASC_NODE = 94.1718
ARG_OF_PERICENTER = 280.8455
MEAN_ANOMALY   = 79.2161

EPHEMERIS_TYPE = 0
CLASSIFICATION_TYPE = U
NORAD_CAT_ID   = 66560
ELEMENT_SET_NO = 999
REV_AT_EPOCH   = 534
BSTAR          = .11053151E-2
MEAN_MOTION_DOT = .65113E-3
MEAN_MOTION_DDOT = 0

CCSDS_OMM_VERS = 2.0
CREATION_DATE  = 
ORIGINATOR     = 

OBJECT_NAME    = STARLINK-35305
OBJECT_ID      = 2025-268E
CENTER_NAME    = EARTH
REF_FRAME      = TEME
TIME_SYSTEM    = UTC
MEAN_ELEMENT_THEORY = SGP/SGP4

EPOCH          = 2025-12-17T08:35:54.000960
MEAN_MOTION    = 15.50655998
ECCENTRICITY   = .00014448
INCLINATION    = 43.0004
RA_OF_ASC_NODE = 94.1664
ARG_OF_PERICENTER = 279.4908
MEAN_ANOMALY   = 80.5789

EPHEMERIS_TYPE = 0
CLASSIFICATION_TYPE = U
NORAD_CAT_ID   = 66561
ELEMENT_SET_NO = 999
REV_AT_EPOCH   = 534
BSTAR          = .13229264E-2
MEAN_MOTION_DOT = .78263E-3
MEAN_MOTION_DDOT = 0

CCSDS_OMM_VERS = 2.0
CREATION_DATE  = 
ORIGINATOR     = 

OBJECT_NAME    = STARLINK-35579
OBJECT_ID      = 2025-268F
CENTER_NAME    = EARTH
REF_FRAME      = TEME
TIME_SYSTEM    = UTC
MEAN_ELEMENT_THEORY = SGP/SGP4

EPOCH          = 2025-12-17T08:36:24.328224
MEAN_MOTION    = 15.50648416
ECCENTRICITY   = .00023462
INCLINATION    = 42.9996
RA_OF_ASC_NODE = 94.1673
ARG_OF_PERICENTER = 253.6447
MEAN_ANOMALY   = 106.4155

EPHEMERIS_TYPE = 0
CLASSIFICATION_TYPE = U
NORAD_CAT_ID   = 66562
ELEMENT_SET_NO = 999
REV_AT_EPOCH   = 534
BSTAR          = .18311606E-2
MEAN_MOTION_DOT = .108863E-2
MEAN_MOTION_DDOT = 0

CCSDS_OMM_VERS = 2.0
CREATION_DATE  = 
ORIGINATOR     = 

OBJECT_NAME    = STARLINK-35437
OBJECT_ID      = 2025-268G
CENTER_NAME    = EARTH
REF_FRAME      = TEME
TIME_SYSTEM    = UTC
MEAN_ELEMENT_THEORY = SGP/SGP4

EPOCH          = 2025-12-17T08:35:24.454752
MEAN_MOTION    = 15.50619778
ECCENTRICITY   = .00020809
INCLINATION    = 43.0005
RA_OF_ASC_NODE = 94.1634
ARG_OF_PERICENTER = 277.1419
MEAN_ANOMALY   = 82.9205

EPHEMERIS_TYPE = 0
CLASSIFICATION_TYPE = U
NORAD_CAT_ID   = 66563
ELEMENT_SET_NO = 999
REV_AT_EPOCH   = 534
BSTAR          = .11699718E-2
MEAN_MOTION_DOT = .69005E-3
MEAN_MOTION_DDOT = 0

CCSDS_OMM_VERS = 2.0
CREATION_DATE  = 
ORIGINATOR     = 

OBJECT_NAME    = STARLINK-35358
OBJECT_ID      = 2025-268H
CENTER_NAME    = EARTH
REF_FRAME      = TEME
TIME_SYSTEM    = UTC
MEAN_ELEMENT_THEORY = SGP/SGP4

EPOCH          = 2025-12-16T14:01:49.179936
MEAN_MOTION    = 15.50594418
ECCENTRICITY   = .00027116
INCLINATION    = 43.0010
RA_OF_ASC_NODE = 98.6796
ARG_OF_PERICENTER = 274.7611
MEAN_ANOMALY   = 85.2939

EPHEMERIS_TYPE = 0
CLASSIFICATION_TYPE = U
NORAD_CAT_ID   = 66564
ELEMENT_SET_NO = 999
REV_AT_EPOCH   = 522
BSTAR          = .10025673E-2
MEAN_MOTION_DOT = .58955E-3
MEAN_MOTION_DDOT = 0

CCSDS_OMM_VERS = 2.0
CREATION_DATE  = 
ORIGINATOR     = 

OBJECT_NAME    = STARLINK-35893
OBJECT_ID      = 2025-268J
CENTER_NAME    = EARTH
REF_FRAME      = TEME
TIME_SYSTEM    = UTC
MEAN_ELEMENT_THEORY = SGP/SGP4

EPOCH          = 2025-12-17T14:45:27.364320
MEAN_MOTION    = 15.50645762
ECCENTRICITY   = .00010231
INCLINATION    = 42.9963
RA_OF_ASC_NODE = 92.6492
ARG_OF_PERICENTER = 296.3294
MEAN_ANOMALY   = 63.7461

EPHEMERIS_TYPE = 0
CLASSIFICATION_TYPE = U
NORAD_CAT_ID   = 66565
ELEMENT_SET_NO = 999
REV_AT_EPOCH   = 538
BSTAR          = .13537546E-2
MEAN_MOTION_DOT = .80083E-3
MEAN_MOTION_DDOT = 0

